{
  "type": "FeatureCollection",
  "features": [
    {
      "type": "Feature",
      "properties": {
        "norad_id": 59600,
        "name": "GSAT0227 (GALILEO 30)",
        "group": "galileo",
        "lat": -49.336584552896106,
        "lon": 51.686920748570955,
        "alt_km": 23237.25687382846,
        "timestamp": "2025-12-12T22:42:12.808866+00:00",
        "meta_object_name": "GSAT0227 (GALILEO 30)",
        "meta_object_id": "2024-079C",
        "meta_epoch": "2025-12-08T22:48:42.234912",
        "meta_mean_motion": 1.70474719,
        "meta_eccentricity": 0.0003262,
        "meta_inclination": 54.9946,
        "meta_ra_of_asc_node": 106.4003,
        "meta_arg_of_pericenter": 114.182,
        "meta_mean_anomaly": 245.816,
        "meta_ephemeris_type": 0,
        "meta_classification_type": "U",
        "meta_norad_cat_id": 59600,
        "meta_element_set_no": 999,
        "meta_rev_at_epoch": 1012,
        "meta_bstar": 0,
        "meta_mean_motion_dot": 9e-08,
        "meta_mean_motion_ddot": 0,
        "tle_line1": "1 59600U 24079C   25342.95048883  .00000009  00000+0  00000+0 0  9990",
        "tle_line2": "2 59600  54.9946 106.4003 0003262 114.1820 245.8160  1.70474719 10123"
      },
      "geometry": {
        "type": "Point",
        "coordinates": [
          51.686920748570955,
          -49.336584552896106
        ]
      }
    },
    {
      "type": "Feature",
      "properties": {
        "norad_id": 61182,
        "name": "GSAT0232 (GALILEO 32)",
        "group": "galileo",
        "lat": 41.26670559435233,
        "lon": 8.931699377068416,
        "alt_km": 23216.797830582247,
        "timestamp": "2025-12-12T22:42:12.808877+00:00",
        "meta_object_name": "GSAT0232 (GALILEO 32)",
        "meta_object_id": "2024-167A",
        "meta_epoch": "2025-12-11T07:24:23.319072",
        "meta_mean_motion": 1.70473458,
        "meta_eccentricity": 0.0001976,
        "meta_inclination": 55.2412,
        "meta_ra_of_asc_node": 226.4699,
        "meta_arg_of_pericenter": 212.0591,
        "meta_mean_anomaly": 349.7178,
        "meta_ephemeris_type": 0,
        "meta_classification_type": "U",
        "meta_norad_cat_id": 61182,
        "meta_element_set_no": 999,
        "meta_rev_at_epoch": 767,
        "meta_bstar": 0,
        "meta_mean_motion_dot": 1.1e-07,
        "meta_mean_motion_ddot": 0,
        "tle_line1": "1 61182U 24167A   25345.30860323  .00000011  00000+0  00000+0 0  9992",
        "tle_line2": "2 61182  55.2412 226.4699 0001976 212.0591 349.7178  1.70473458  7678"
      },
      "geometry": {
        "type": "Point",
        "coordinates": [
          8.931699377068416,
          41.26670559435233
        ]
      }
    },
    {
      "type": "Feature",
      "properties": {
        "norad_id": 61183,
        "name": "GSAT0226 (GALILEO 31)",
        "group": "galileo",
        "lat": -44.94442280974976,
        "lon": 90.2617278814733,
        "alt_km": 23228.641040592225,
        "timestamp": "2025-12-12T22:42:12.808889+00:00",
        "meta_object_name": "GSAT0226 (GALILEO 31)",
        "meta_object_id": "2024-167B",
        "meta_epoch": "2025-12-09T21:57:08.318304",
        "meta_mean_motion": 1.70473488,
        "meta_eccentricity": 8.079e-05,
        "meta_inclination": 55.2402,
        "meta_ra_of_asc_node": 226.5136,
        "meta_arg_of_pericenter": 118.4795,
        "meta_mean_anomaly": 60.4734,
        "meta_ephemeris_type": 0,
        "meta_classification_type": "U",
        "meta_norad_cat_id": 61183,
        "meta_element_set_no": 999,
        "meta_rev_at_epoch": 762,
        "meta_bstar": 0,
        "meta_mean_motion_dot": 1e-07,
        "meta_mean_motion_ddot": 0,
        "tle_line1": "1 61183U 24167B   25343.91467961  .00000010  00000+0  00000+0 0  9998",
        "tle_line2": "2 61183  55.2402 226.5136 0000807 118.4795  60.4734  1.70473488  7625"
      },
      "geometry": {
        "type": "Point",
        "coordinates": [
          90.2617278814733,
          -44.94442280974976
        ]
      }
    }
  ]
}